SAR-LUPE 2              
1 31797U 07030A   26161.30789338  .00035134  00000+0  64888-3 0  9996
2 31797  98.1027 264.8950 0007459 147.5811 212.5898 15.48986009 55872
SAPPHIRE                
1 39088U 13009C   26161.32979316  .00000099  00000+0  49583-4 0  9997
2 39088  98.4259 340.9486 0009974 269.5510  90.4533 14.35238619695598
PRAETORIAN SDA_602      
1 65565U 25203A   26161.51920208  .00000045  00000+0  29840-4 0  9997
2 65565  81.3035  16.9461 0005438 202.9898 157.1016 13.84342182 37775
PRAETORIAN SDA_603      
1 65566U 25203B   26161.32688566  .00000188  00000+0  15869-3 0  9998
2 65566  81.3040  17.0364 0008987 206.6713 153.3982 13.83904370 37755
PRAETORIAN SDA_604      
1 65567U 25203C   26161.34235188  .00000088  00000+0  69623-4 0  9996
2 65567  81.3057  17.4236 0004918 211.7407 148.3453 13.83047050 37731
PRAETORIAN SDA_605      
1 65568U 25203D   26161.09262546  .00000051  00000+0  35975-4 0  9990
2 65568  81.3023  17.3241 0007728 202.8494 157.2320 13.83433749 37713
PRAETORIAN SDA_606      
1 65569U 25203E   26161.07503564  .00000055  00000+0  39315-4 0  9993
2 65569  81.3059  17.5592 0005338 201.2875 158.8060 13.83406668 37702
PRAETORIAN SDA_607      
1 65570U 25203F   26161.08757175  .00000107  00000+0  85205-4 0  9992
2 65570  81.3042  17.2218 0008278 207.6571 152.4147 13.84283990 37727
PRAETORIAN SDA_608      
1 65571U 25203G   26161.06257405  .00000072  00000+0  54180-4 0  9991
2 65571  81.3010  17.4040 0005432 211.7618 148.3212 13.83816366 37708
PRAETORIAN SDA_609      
1 65572U 25203H   26161.35871604  .00000161  00000+0  13390-3 0  9993
2 65572  81.3054  17.1143 0006356 204.0536 156.0325 13.84284932 37753
PRAETORIAN SDA_610      
1 65573U 25203J   26161.33171566  .00000053  00000+0  37282-4 0  9999
2 65573  81.3011  17.1130 0006102 208.0445 152.0383 13.83851462 37741
PRAETORIAN SDA_611      
1 65574U 25203K   26161.32980941  .00000135  00000+0  11249-3 0  9999
2 65574  81.3024  17.2753 0004957 214.4759 145.6076 13.83307580 37736
PRAETORIAN SDA_612      
1 65575U 25203L   26161.32797991  .00000140  00000+0  11342-3 0  9991
2 65575  81.3030  16.8799 0008738 206.1587 153.9130 13.85038453 37765
PRAETORIAN SDA_613      
1 65576U 25203M   26161.33385911  .00000055  00000+0  39929-4 0  9995
2 65576  81.3004  17.2628 0005199 203.5212 156.5707 13.82764593 37731
PRAETORIAN SDA_614      
1 65577U 25203N   26161.09910538  .00000044  00000+0  28654-4 0  9999
2 65577  81.3019  17.1679 0006652 203.6768 156.4083 13.84777797 37733
PRAETORIAN SDA_615      
1 65578U 25203P   26161.07424242  .00000162  00000+0  13446-3 0  9993
2 65578  81.3031  17.1491 0008583 204.8580 155.2165 13.84435427 37728
PRAETORIAN SDA_616      
1 65579U 25203Q   26161.32881744  .00000220  00000+0  18945-3 0  9990
2 65579  81.3065  17.4167 0004909 212.2653 147.8203 13.83266921 37732
PRAETORIAN SDA_617      
1 65580U 25203R   26161.34983778  .00000043  00000+0  28542-4 0  9992
2 65580  81.3040  17.2287 0006901 203.3600 156.7243 13.83149919 37746
PRAETORIAN SDA_618      
1 65581U 25203S   26161.33052550  .00000210  00000+0  17661-3 0  9992
2 65581  81.3024  16.8454 0009233 206.9747 153.0932 13.84668519 37762
PRAETORIAN SDA_619      
1 65582U 25203T   26161.36219725  .00000108  00000+0  86538-4 0  9991
2 65582  81.3054  17.1018 0007713 204.3573 155.7220 13.83804539 38387
PRAETORIAN SDA_620      
1 65583U 25203U   26161.10000672  .00000197  00000+0  16763-3 0  9993
2 65583  81.3035  17.3642 0007105 201.0906 158.9958 13.83617436 37718
PRAETORIAN SDA_621      
1 65584U 25203V   26161.07473140  .00000068  00000+0  50971-4 0  9991
2 65584  81.3025  17.3087 0006974 198.5568 161.5335 13.83800780 37713
PRAETORIAN SDA_601      
1 65585U 25203W   26161.33145713  .00000179  00000+0  15284-3 0  9993
2 65585  81.3052  17.3599 0004891 215.8986 144.1842 13.83166350 37735
